STARLINK-1036_new
1 14741C 19074AE  21326.15313635  .00005225  00000-0  35008-3 0  3269
2 14741  53.0542  48.0552 0001111  75.2593 352.9692 15.06396527    11
STARLINK-1036_old
1 24741C 19074AE  21325.12151088  .00004755  00000-0  31868-3 0  3253
2 24741  53.0547  52.6860 0001143  76.4862 154.1290 15.06386193    10
